#dP2018  6 13  0  0  0.00000000      96 __u+U IGS08 FIT  IAC
## 2005 259200.00000000   900.00000000 58282 0.0000000000000
+   85   C01C02C03C04C05C06C07C08C09C10C11C12C13C14E01E02E03
+        E04E05E07E08E09E11E12E14E18E19E24E26E30G01G02G03G05
+        G06G07G08G09G10G11G12G13G14G15G16G17G18G19G20G21G22
+        G23G24G25G26G27G28G29G30G31G32J01R01R02R03R04R05R07
+        R08R09R10R11R13R14R15R16R17R18R19R20R21R22R23R24R26
++        12 12 12 13  0  8  8  9  8  8  7  7  9  8  7  7  7
++         7  7  7  7  7  7  7  7  7  7  7  7  7  3  3  3  3
++         3  3  3  3  3  3  3  3  3  3  3  3  3  3  3  3  3
++         3  3  3  3  3  3  3  3  3  3  9  5  5  6  5  6  5
++         5  5  5  5  5  5  5  7  5  5  5  5  5  5  5  7  8
%c M  cc GPS ccc cccc cccc cccc cccc ccccc ccccc ccccc ccccc
%c cc cc ccc ccc cccc cccc cccc cccc ccccc ccccc ccccc ccccc
%f  1.2500000  1.025000000  0.00000000000  0.000000000000000
%f  0.0000000  0.000000000  0.00000000000  0.000000000000000
%i    0    0    0    0      0      0      0      0         0
%i    0    0    0    0      0      0      0      0         0
/* INFORMATION & ANALYSIS CENTER (IAC)            FINAL DATA
/* S/V CLOCKS ARE ALIGNED TO GPS & GLONASS TIME RESPECTIVELY
/* USING THE BROADCAST EPHEMERIS                            
/* PCV:IGS14_2000 OL/AL:FES2004  NONE     YN ORB:CoN CLK:CoN
*  2018 06 13 22 45  0.00000000
PC01 -32316.333734  27099.494027    404.407541   -171.020914
PC02   4404.227366  41919.224037  -1253.032024    147.903446
PC03 -14803.477864  39444.299870   -399.422436     89.517926
PC04 -39616.781015  14445.006089    -88.675998    -49.491395
PC05      0.000000      0.000000      0.000000 999999.999999
PC06 -21684.026047  35606.594710   5286.771257     53.267483
PC07  -8575.774424  30687.880996  27943.014730    109.712174
PC08 -19250.096495  18329.915230 -32735.739673    389.174902
PC09 -11176.680628  35719.134765  19276.590720    -40.367656
PC10   5329.690700  38599.210157  16690.513984   -307.389421
PC11 -15755.453724  -8992.267322  21276.417089   -548.554264
PC12   4845.393477 -17271.534623  21403.478394    476.844210
PC13  -4312.513667  23204.133083 -34935.397372   -374.869323
PC14  -9632.234476 -19638.444010 -17292.978534    335.438403
PE01 -15047.725119   6264.378672  24703.628121   -367.663372
PE02  15040.660382  -6284.943412 -24711.137276     16.267653
PE03  20289.203353 -16735.385051  13581.824218    -43.132476
PE04 -11281.832995  27000.863991   4458.151278    -54.431618
PE05  17424.791677   3363.196453  23700.981962    246.380299
PE07  -4364.208783 -21440.631525 -19916.002294     15.812641
PE08  11074.266321 -27082.775445  -4432.261195   6564.748591
PE09   4444.423243  21381.539557  20002.166319   6763.976709
PE11  13604.276603  14376.244268 -22023.143937   1139.970350
PE12  -9516.172042  15821.937436 -23129.254867   4376.254506
PE14 -13418.840587  22096.096082 -13322.633939   6567.356815
PE18  23583.852841 -15588.314759    501.480136   6134.957715
PE19 -20407.444652  15249.075473 -15054.737378     23.218459
PE24  14208.113451  25894.194219   1874.315488   6654.588822
PE26 -28008.717555  -4849.732827   8252.454435   5825.426604
PE30    623.327323 -22839.748863 -18829.994454   5760.614650
PG01  21837.979338  14051.065098  -6453.609566    -56.070259
PG02  -2480.768977 -16800.497558  21036.313591     86.739818
PG03  13075.938870  17233.656686  15433.569214     88.598448
PG05  -2025.350600 -26224.738779   2632.475899     -6.211215
PG06  13191.967181  -9937.059625  20837.998887    396.243419
PG07  24973.867062   4566.472888  -8345.676517    175.763999
PG08   6328.336267  13920.161648 -21656.109287   -104.685191
PG09  21905.980111  -4097.732373  14429.597605    514.588642
PG10 -11828.092361  13709.101133 -19332.498708    188.084939
PG11  19555.139344  10981.587676 -14665.733419   -733.880090
PG12  -9771.244679 -21184.154400  12678.078427    327.562371
PG13   3531.874049 -17706.678690 -19586.201002    -93.508215
PG14 -15777.828505  18760.380323  10293.133453    -97.375676
PG15  -9822.354702 -12692.337610 -21364.556150   -352.677213
PG16   -865.801677  26115.500795   3103.766441     21.515131
PG17  21289.426298 -15731.161462   1421.867315    -88.540962
PG18  15522.193174  16636.553423 -14311.536873     21.289467
PG19  17832.939240 -17731.810247   8516.376679   -428.659526
PG20 -15965.665287   1811.073273 -21299.174519    510.426483
PG21 -24005.359015   -573.616785 -10526.165362   -381.794050
PG22  10766.107360  22887.325182   8381.446727   -424.945014
PG23  15555.200231   6938.295728  20764.859151   -215.914139
PG24 -19846.413959 -14971.682765  -9860.734647    -51.117520
PG25 -14964.381706  -7566.820682  20470.795379   -600.470187
PG26  -6043.905529  22249.033902  13058.672404   -116.634025
PG27  -6249.472076  19310.984398 -17070.018695    366.016575
PG28  12944.705886 -10327.582894 -20160.154620    723.423722
PG29 -20901.142573    927.273145  16330.261802    432.944428
PG30  20616.034116  -3352.505900 -16495.036833     62.838086
PG31 -12035.575146  10723.635340  21213.681632    114.801267
PG32 -20846.526087  16378.553261    276.744410   -494.490014
PJ01 -19959.189814  30153.884764 -17046.998084   -220.603252
PR01   7525.896094 -24355.686978   -615.616532     27.616418
PR02  -3177.211221 -17542.439161 -18220.736214    314.669660
PR03 -11352.643324   -414.940100 -22789.228481    134.891490
PR04 -12716.625965  17333.850496 -13694.798398    264.688467
PR05  -6460.147376  24529.628928   2746.744532    -23.975562
PR07  11529.712182   -101.419009  22797.093823    -39.981482
PR08  12883.832009 -16770.771943  14322.299607     22.758614
PR09  15652.639709  20032.474057   2519.854197     23.657242
PR10  18146.076596  11193.252552 -14093.556474     26.031127
PR11  10213.136748  -4884.063546 -22850.419964    -31.216825
PR13 -15999.476245 -19699.088562  -2536.033601    -11.360389
PR14 -18298.340763 -11090.711014  13881.081429     28.159405
PR15 -12604.585362    997.004737  22174.776928    -11.666256
PR16   3361.056113  17020.296764  18630.625369     94.832246
PR17 -23509.328148   -117.044507   9938.749040    139.961842
PR18 -23199.107161   7789.306228  -7068.168655    199.175559
PR19 -10234.305529  11184.546447 -20515.664864    -54.665404
PR20  10302.862721   8223.356752 -21846.014384   -341.514674
PR21  23607.968292   -106.191902  -9639.520516     11.993449
PR22  22383.557543  -8448.291553   9034.847445    -50.940667
PR23   5977.295684 -11335.334849  22046.115143    159.565554
PR24 -11349.924941  -7736.793700  21460.744074   -167.561383
PR26   9557.137606   8371.959155 -22105.793515     26.442967
EOF
